{"type": "FeatureCollection", "features": [ {"type": "Feature", "properties": {"norad_id": 30242, "name": "FENGYUN 1C DEB", "group": "fengyun-1c-debris", "lat": 44.5922797906167, "lon": 21.243192337577682, "alt_km": 822.0487785584664, "timestamp": "2025-12-21T22:41:41.734846+00:00", "meta": {"OBJECT_NAME": "FENGYUN 1C DEB", "OBJECT_ID": "1999-025XB", "EPOCH": "2025-12-21T13:06:17.036928", "MEAN_MOTION": 14.17657802, "ECCENTRICITY": 0.00106774, "INCLINATION": 98.6826, "RA_OF_ASC_NODE": 29.5172, "ARG_OF_PERICENTER": 30.1382, "MEAN_ANOMALY": 136.9609, "EPHEMERIS_TYPE": 0, "CLASSIFICATION_TYPE": "U", "NORAD_CAT_ID": 30242, "ELEMENT_SET_NO": 999, "REV_AT_EPOCH": 97551, "BSTAR": 0.00047815252, "MEAN_MOTION_DOT": 9.3e-06, "MEAN_MOTION_DDOT": 0}, "tle": {"line1": "1 30242U 99025XB  25355.54603052  .00000930  00000+0  47815-3 0  9990", "line2": "2 30242  98.6826  29.5172 0010677  30.1382 136.9609 14.17657802975518"}}, "geometry": {"type": "Point", "coordinates": [21.243192337577682, 44.5922797906167]}}, {"type": "Feature", "properties": {"norad_id": 30243, "name": "FENGYUN 1C DEB", "group": "fengyun-1c-debris", "lat": -23.832104919414416, "lon": 10.972301424011118, "alt_km": 859.0204120381095, "timestamp": "2025-12-21T22:41:41.734857+00:00", "meta": {"OBJECT_NAME": "FENGYUN 1C DEB", "OBJECT_ID": "1999-025XC", "EPOCH": "2025-12-21T01:00:46.022112", "MEAN_MOTION": 14.13032996, "ECCENTRICITY": 0.00132068, "INCLINATION": 98.6926, "RA_OF_ASC_NODE": 6.2203, "ARG_OF_PERICENTER": 97.2954, "MEAN_ANOMALY": 325.7567, "EPHEMERIS_TYPE": 0, "CLASSIFICATION_TYPE": "U", "NORAD_CAT_ID": 30243, "ELEMENT_SET_NO": 999, "REV_AT_EPOCH": 97396, "BSTAR": 0.00030039637, "MEAN_MOTION_DOT": 5.18e-06, "MEAN_MOTION_DDOT": 0}, "tle": {"line1": "1 30243U 99025XC  25355.04219933  .00000518  00000+0  30040-3 0  9991", "line2": "2 30243  98.6926   6.2203 0013206  97.2954 325.7567 14.13032996973962"}}, "geometry": {"type": "Point", "coordinates": [10.972301424011118, -23.832104919414416]}}, {"type": "Feature", "properties": {"norad_id": 30244, "name": "FENGYUN 1C DEB", "group": "fengyun-1c-debris", "lat": -56.310476869198595, "lon": 51.84261444204038, "alt_km": 845.025240243498, "timestamp": "2025-12-21T22:41:41.734867+00:00", "meta": {"OBJECT_NAME": "FENGYUN 1C DEB", "OBJECT_ID": "1999-025XD", "EPOCH": "2025-12-21T05:10:28.737696", "MEAN_MOTION": 14.15027168, "ECCENTRICITY": 0.00092019, "INCLINATION": 99.1434, "RA_OF_ASC_NODE": 245.075, "ARG_OF_PERICENTER": 290.2088, "MEAN_ANOMALY": 190.5461, "EPHEMERIS_TYPE": 0, "CLASSIFICATION_TYPE": "U", "NORAD_CAT_ID": 30244, "ELEMENT_SET_NO": 999, "REV_AT_EPOCH": 97466, "BSTAR": 0.00026924136, "MEAN_MOTION_DOT": 4.75e-06, "MEAN_MOTION_DDOT": 0}, "tle": {"line1": "1 30244U 99025XD  25355.21561039  .00000475  00000+0  26924-3 0  9996", "line2": "2 30244  99.1434 245.0750 0009201 290.2088 190.5461 14.15027168974662"}}, "geometry": {"type": "Point", "coordinates": [51.84261444204038, -56.310476869198595]}}, {"type": "Feature", "properties": {"norad_id": 30245, "name": "FENGYUN 1C DEB", "group": "fengyun-1c-debris", "lat": -81.08681046565195, "lon": 76.69732016252654, "alt_km": 869.7492239963904, "timestamp": "2025-12-21T22:41:41.734877+00:00", "meta": {"OBJECT_NAME": "FENGYUN 1C DEB", "OBJECT_ID": "1999-025XE", "EPOCH": "2025-12-20T22:45:20.121120", "MEAN_MOTION": 13.79086475, "ECCENTRICITY": 0.0192917, "INCLINATION": 98.8894, "RA_OF_ASC_NODE": 342.0463, "ARG_OF_PERICENTER": 228.9674, "MEAN_ANOMALY": 129.4665, "EPHEMERIS_TYPE": 0, "CLASSIFICATION_TYPE": "U", "NORAD_CAT_ID": 30245, "ELEMENT_SET_NO": 999, "REV_AT_EPOCH": 94807, "BSTAR": 0.00075178, "MEAN_MOTION_DOT": 8.42e-06, "MEAN_MOTION_DDOT": 0}, "tle": {"line1": "1 30245U 99025XE  25354.94814955  .00000842  00000+0  75178-3 0  9997", "line2": "2 30245  98.8894 342.0463 0192917 228.9674 129.4665 13.79086475948072"}}, "geometry": {"type": "Point", "coordinates": [76.69732016252654, -81.08681046565195]}}, {"type": "Feature", "properties": {"norad_id": 30246, "name": "FENGYUN 1C DEB", "group": "fengyun-1c-debris", "lat": 50.81874875474613, "lon": 127.4830641316567, "alt_km": 861.8117646959054, "timestamp": "2025-12-21T22:41:41.734896+00:00", "meta": {"OBJECT_NAME": "FENGYUN 1C DEB", "OBJECT_ID": "1999-025XF", "EPOCH": "2025-12-21T15:20:41.125632", "MEAN_MOTION": 13.37022295, "ECCENTRICITY": 0.03705378, "INCLINATION": 98.6735, "RA_OF_ASC_NODE": 138.0155, "ARG_OF_PERICENTER": 77.3851, "MEAN_ANOMALY": 302.7339, "EPHEMERIS_TYPE": 0, "CLASSIFICATION_TYPE": "U", "NORAD_CAT_ID": 30246, "ELEMENT_SET_NO": 999, "REV_AT_EPOCH": 92259, "BSTAR": 0.00021748554, "MEAN_MOTION_DOT": 1.36e-06, "MEAN_MOTION_DDOT": 0}, "tle": {"line1": "1 30246U 99025XF  25355.63936488  .00000136  00000+0  21749-3 0  9992", "line2": "2 30246  98.6735 138.0155 0370537  77.3851 302.7339 13.37022295922592"}}, "geometry": {"type": "Point", "coordinates": [127.4830641316567, 50.81874875474613]}}, {"type": "Feature", "properties": {"norad_id": 30247, "name": "FENGYUN 1C DEB", "group": "fengyun-1c-debris", "lat": -25.398213339117117, "lon": 79.11712096060675, "alt_km": 762.0879694041478, "timestamp": "2025-12-21T22:41:41.734906+00:00", "meta": {"OBJECT_NAME": "FENGYUN 1C DEB", "OBJECT_ID": "1999-025XG", "EPOCH": "2025-12-21T12:40:44.034816", "MEAN_MOTION": 14.59485106, "ECCENTRICITY": 0.01924312, "INCLINATION": 98.2771, "RA_OF_ASC_NODE": 262.6639, "ARG_OF_PERICENTER": 324.7921, "MEAN_ANOMALY": 211.2938, "EPHEMERIS_TYPE": 0, "CLASSIFICATION_TYPE": "U", "NORAD_CAT_ID": 30247, "ELEMENT_SET_NO": 999, "REV_AT_EPOCH": 97410, "BSTAR": 0.0026470553, "MEAN_MOTION_DOT": 0.00016256, "MEAN_MOTION_DDOT": 0}, "tle": {"line1": "1 30247U 99025XG  25355.52828744  .00016256  00000+0  26471-2 0  9992", "line2": "2 30247  98.2771 262.6639 0192431 324.7921 211.2938 14.59485106974104"}}, "geometry": {"type": "Point", "coordinates": [79.11712096060675, -25.398213339117117]}}, {"type": "Feature", "properties": {"norad_id": 30248, "name": "FENGYUN 1C DEB", "group": "fengyun-1c-debris", "lat": -61.26441752352994, "lon": -16.043810143666843, "alt_km": 711.9975520655908, "timestamp": "2025-12-21T22:41:41.734916+00:00", "meta": {"OBJECT_NAME": "FENGYUN 1C DEB", "OBJECT_ID": "1999-025XH", "EPOCH": "2025-12-20T11:02:07.370592", "MEAN_MOTION": 14.59419163, "ECCENTRICITY": 0.00278685, "INCLINATION": 99.0961, "RA_OF_ASC_NODE": 179.3187, "ARG_OF_PERICENTER": 126.6858, "MEAN_ANOMALY": 233.6906, "EPHEMERIS_TYPE": 0, "CLASSIFICATION_TYPE": "U", "NORAD_CAT_ID": 30248, "ELEMENT_SET_NO": 999, "REV_AT_EPOCH": 97541, "BSTAR": 0.0023807089, "MEAN_MOTION_DOT": 0.00011303, "MEAN_MOTION_DDOT": 0}, "tle": {"line1": "1 30248U 99025XH  25354.45980753  .00011303  00000+0  23807-2 0  9991", "line2": "2 30248  99.0961 179.3187 0027868 126.6858 233.6906 14.59419163975414"}}, "geometry": {"type": "Point", "coordinates": [-16.043810143666843, -61.26441752352994]}}, {"type": "Feature", "properties": {"norad_id": 30249, "name": "FENGYUN 1C DEB", "group": "fengyun-1c-debris", "lat": -75.64251197102479, "lon": -56.98100310983118, "alt_km": 714.8776848924281, "timestamp": "2025-12-21T22:41:41.734927+00:00", "meta": {"OBJECT_NAME": "FENGYUN 1C DEB", "OBJECT_ID": "1999-025XJ", "EPOCH": "2025-12-21T10:04:48.337824", "MEAN_MOTION": 14.57889655, "ECCENTRICITY": 0.00266932, "INCLINATION": 98.959, "RA_OF_ASC_NODE": 160.5008, "ARG_OF_PERICENTER": 14.2581, "MEAN_ANOMALY": 7.6666, "EPHEMERIS_TYPE": 0, "CLASSIFICATION_TYPE": "U", "NORAD_CAT_ID": 30249, "ELEMENT_SET_NO": 999, "REV_AT_EPOCH": 97690, "BSTAR": 0.0024823373, "MEAN_MOTION_DOT": 0.00011396, "MEAN_MOTION_DDOT": 0}, "tle": {"line1": "1 30249U 99025XJ  25355.42000391  .00011396  00000+0  24823-2 0  9992", "line2": "2 30249  98.9590 160.5008 0026693  14.2581   7.6666 14.57889655976907"}}, "geometry": {"type": "Point", "coordinates": [-56.98100310983118, -75.64251197102479]}}, {"type": "Feature", "properties": {"norad_id": 30250, "name": "FENGYUN 1C DEB", "group": "fengyun-1c-debris", "lat": -77.21864796078653, "lon": 30.306101471549987, "alt_km": 888.2581673518243, "timestamp": "2025-12-21T22:41:41.734937+00:00", "meta": {"OBJECT_NAME": "FENGYUN 1C DEB", "OBJECT_ID": "1999-025XK", "EPOCH": "2025-12-21T13:24:58.826880", "MEAN_MOTION": 14.01634295, "ECCENTRICITY": 0.00683914, "INCLINATION": 98.7545, "RA_OF_ASC_NODE": 347.1493, "ARG_OF_PERICENTER": 198.3745, "MEAN_ANOMALY": 290.5158, "EPHEMERIS_TYPE": 0, "CLASSIFICATION_TYPE": "U", "NORAD_CAT_ID": 30250, "ELEMENT_SET_NO": 999, "REV_AT_EPOCH": 96615, "BSTAR": 0.00022155754, "MEAN_MOTION_DOT": 3e-06, "MEAN_MOTION_DDOT": 0}, "tle": {"line1": "1 30250U 99025XK  25355.55901420  .00000300  00000+0  22156-3 0  9992", "line2": "2 30250  98.7545 347.1493 0068391 198.3745 290.5158 14.01634295966157"}}, "geometry": {"type": "Point", "coordinates": [30.306101471549987, -77.21864796078653]}}, {"type": "Feature", "properties": {"norad_id": 30251, "name": "FENGYUN 1C DEB", "group": "fengyun-1c-debris", "lat": 0.10489488724015826, "lon": 14.634773559777537, "alt_km": 817.2630635381402, "timestamp": "2025-12-21T22:41:41.734947+00:00", "meta": {"OBJECT_NAME": "FENGYUN 1C DEB", "OBJECT_ID": "1999-025XL", "EPOCH": "2025-12-21T12:03:20.472192", "MEAN_MOTION": 14.293237, "ECCENTRICITY": 0.00514884, "INCLINATION": 99.0487, "RA_OF_ASC_NODE": 194.158, "ARG_OF_PERICENTER": 304.7774, "MEAN_ANOMALY": 115.7355, "EPHEMERIS_TYPE": 0, "CLASSIFICATION_TYPE": "U", "NORAD_CAT_ID": 30251, "ELEMENT_SET_NO": 999, "REV_AT_EPOCH": 98267, "BSTAR": 0.00038066265, "MEAN_MOTION_DOT": 9.35e-06, "MEAN_MOTION_DDOT": 0}, "tle": {"line1": "1 30251U 99025XL  25355.50232028  .00000935  00000+0  38066-3 0  9990", "line2": "2 30251  99.0487 194.1580 0051488 304.7774 115.7355 14.29323700982676"}}, "geometry": {"type": "Point", "coordinates": [14.634773559777537, 0.10489488724015826]}}]}